start=new Date('2022-01-16T00:00:00.000Z').valueOf();
sats=[{"MEAN_ANOMALY":"299.6567","GP_ID":"193915582","COUNTRY_CODE":"US","EPHEMERIS_TYPE":"0","OBJECT_NAME":"STARLINK-1759","RCS_SIZE":"LARGE","PERIAPSIS":"546.198","TLE_LINE2":"2 46340  53.0549 335.8945 0001473  60.4569 299.6567 15.06398442 76028","INCLINATION":"53.0549","ELEMENT_SET_NO":"999","CLASSIFICATION_TYPE":"U","MEAN_MOTION":"15.06398442","OBJECT_ID":"2020-062R","SITE":"AFETR","OBJECT_TYPE":"PAYLOAD","ECCENTRICITY":"0.00014730","SEMIMAJOR_AXIS":"6925.353","NORAD_CAT_ID":"46340","EPOCH":"2022-01-15T02:14:37.258656","TIME_SYSTEM":"UTC","MEAN_MOTION_DDOT":"0.0000000000000","FILE":"3273762","PERIOD":"95.592","CENTER_NAME":"EARTH","DECAY_DATE":null,"REF_FRAME":"TEME","MEAN_ELEMENT_THEORY":"SGP4","ARG_OF_PERICENTER":"60.4569","MEAN_MOTION_DOT":"0.00000423","LAUNCH_DATE":"2020-09-03","APOAPSIS":"548.238","RA_OF_ASC_NODE":"335.8945","TLE_LINE1":"1 46340U 20062R   22015.09348679  .00000423  00000-0  47326-4 0  9998","BSTAR":"0.00004732600000","REV_AT_EPOCH":"7602"},{"MEAN_ANOMALY":"296.2080","GP_ID":"193915332","COUNTRY_CODE":"US","EPHEMERIS_TYPE":"0","OBJECT_NAME":"STARLINK-1760","RCS_SIZE":"LARGE","PERIAPSIS":"545.953","TLE_LINE2":"2 46341  53.0541 315.8740 0001833  63.9097 296.2080 15.06397039 76312","INCLINATION":"53.0541","ELEMENT_SET_NO":"999","CLASSIFICATION_TYPE":"U","MEAN_MOTION":"15.06397039","OBJECT_ID":"2020-062S","SITE":"AFETR","OBJECT_TYPE":"PAYLOAD","ECCENTRICITY":"0.00018330","NORAD_CAT_ID":"46341","SEMIMAJOR_AXIS":"6925.358","EPOCH":"2022-01-15T02:23:56.915520","TIME_SYSTEM":"UTC","FILE":"3273762","MEAN_MOTION_DDOT":"0.0000000000000","PERIOD":"95.592","CENTER_NAME":"EARTH","DECAY_DATE":null,"REF_FRAME":"TEME","MEAN_ELEMENT_THEORY":"SGP4","ARG_OF_PERICENTER":"63.9097","LAUNCH_DATE":"2020-09-03","MEAN_MOTION_DOT":"0.00000893","APOAPSIS":"548.492","RA_OF_ASC_NODE":"315.8740","TLE_LINE1":"1 46341U 20062S   22015.09996430  .00000893  00000-0  78834-4 0  9992","BSTAR":"0.00007883400000","REV_AT_EPOCH":"7631"},{"CLASSIFICATION_TYPE":"U","MEAN_MOTION":"15.06405917","SITE":"AFETR","OBJECT_ID":"2020-062T","ELEMENT_SET_NO":"999","TLE_LINE2":"2 46342  53.0546 333.5815 0001715  63.0932 297.0232 15.06405917 76106","INCLINATION":"53.0546","PERIAPSIS":"546.008","OBJECT_NAME":"STARLINK-1762","RCS_SIZE":"LARGE","COUNTRY_CODE":"US","EPHEMERIS_TYPE":"0","GP_ID":"193947711","MEAN_ANOMALY":"297.0232","REV_AT_EPOCH":"7610","APOAPSIS":"548.383","LAUNCH_DATE":"2020-09-03","MEAN_MOTION_DOT":"0.00002185","RA_OF_ASC_NODE":"333.5815","TLE_LINE1":"1 46342U 20062T   22015.61045668  .00002185  00000-0  16552-3 0  9993","BSTAR":"0.00016552000000","MEAN_ELEMENT_THEORY":"SGP4","ARG_OF_PERICENTER":"63.0932","CENTER_NAME":"EARTH","DECAY_DATE":null,"REF_FRAME":"TEME","FILE":"3274074","MEAN_MOTION_DDOT":"0.0000000000000","PERIOD":"95.592","TIME_SYSTEM":"UTC","OBJECT_TYPE":"PAYLOAD","ECCENTRICITY":"0.00017150","NORAD_CAT_ID":"46342","SEMIMAJOR_AXIS":"6925.330","EPOCH":"2022-01-15T14:39:03.457152"},{"EPOCH":"2022-01-15T12:55:34.424832","NORAD_CAT_ID":"46343","SEMIMAJOR_AXIS":"6925.344","ECCENTRICITY":"0.00018600","OBJECT_TYPE":"PAYLOAD","PERIOD":"95.592","MEAN_MOTION_DDOT":"0.0000000000000","FILE":"3273939","TIME_SYSTEM":"UTC","ARG_OF_PERICENTER":"66.2978","MEAN_ELEMENT_THEORY":"SGP4","DECAY_DATE":null,"REF_FRAME":"TEME","CENTER_NAME":"EARTH","REV_AT_EPOCH":"7655","BSTAR":"0.00015584000000","TLE_LINE1":"1 46343U 20062U   22015.53859288  .00002040  00000-0  15584-3 0  9990","RA_OF_ASC_NODE":"313.9143","APOAPSIS":"548.497","LAUNCH_DATE":"2020-09-03","MEAN_MOTION_DOT":"0.00002040","GP_ID":"193922922","MEAN_ANOMALY":"293.8206","RCS_SIZE":"LARGE","OBJECT_NAME":"STARLINK-1764","EPHEMERIS_TYPE":"0","COUNTRY_CODE":"US","INCLINATION":"53.0556","TLE_LINE2":"2 46343  53.0556 313.9143 0001860  66.2978 293.8206 15.06401430 76550","PERIAPSIS":"545.921","OBJECT_ID":"2020-062U","SITE":"AFETR","MEAN_MOTION":"15.06401430","CLASSIFICATION_TYPE":"U","ELEMENT_SET_NO":"999"},{"MEAN_ELEMENT_THEORY":"SGP4","ARG_OF_PERICENTER":"66.2723","CENTER_NAME":"EARTH","REF_FRAME":"TEME","DECAY_DATE":null,"REV_AT_EPOCH":"7653","LAUNCH_DATE":"2020-09-03","APOAPSIS":"548.469","MEAN_MOTION_DOT":"0.00003843","RA_OF_ASC_NODE":"313.8164","TLE_LINE1":"1 46344U 20062V   22015.55700867  .00003843  00000-0  27668-3 0  9999","BSTAR":"0.00027668000000","OBJECT_TYPE":"PAYLOAD","ECCENTRICITY":"0.00018560","SEMIMAJOR_AXIS":"6925.319","NORAD_CAT_ID":"46344","EPOCH":"2022-01-15T13:22:05.549088","FILE":"3273939","MEAN_MOTION_DDOT":"0.0000000000000","PERIOD":"95.592","TIME_SYSTEM":"UTC","TLE_LINE2":"2 46344  53.0549 313.8164 0001856  66.2723 293.8460 15.06409687 76530","INCLINATION":"53.0549","PERIAPSIS":"545.899","CLASSIFICATION_TYPE":"U","MEAN_MOTION":"15.06409687","OBJECT_ID":"2020-062V","SITE":"AFETR","ELEMENT_SET_NO":"999","GP_ID":"193922920","MEAN_ANOMALY":"293.8460","OBJECT_NAME":"STARLINK-1765","RCS_SIZE":"LARGE","COUNTRY_CODE":"US","EPHEMERIS_TYPE":"0"},{"ELEMENT_SET_NO":"999","CLASSIFICATION_TYPE":"U","MEAN_MOTION":"15.06399618","SITE":"AFETR","OBJECT_ID":"2020-062W","PERIAPSIS":"546.083","TLE_LINE2":"2 46345  53.0559 335.5928 0001634  71.2429 288.8737 15.06399618 76032","INCLINATION":"53.0559","COUNTRY_CODE":"US","EPHEMERIS_TYPE":"0","OBJECT_NAME":"STARLINK-1767","RCS_SIZE":"LARGE","MEAN_ANOMALY":"288.8737","GP_ID":"193915833","LAUNCH_DATE":"2020-09-03","APOAPSIS":"548.346","MEAN_MOTION_DOT":"0.00001601","RA_OF_ASC_NODE":"335.5928","TLE_LINE1":"1 46345U 20062W   22015.16077954  .00001601  00000-0  12633-3 0  9997","BSTAR":"0.00012633000000","REV_AT_EPOCH":"7603","CENTER_NAME":"EARTH","REF_FRAME":"TEME","DECAY_DATE":null,"MEAN_ELEMENT_THEORY":"SGP4","ARG_OF_PERICENTER":"71.2429","TIME_SYSTEM":"UTC","MEAN_MOTION_DDOT":"0.0000000000000","FILE":"3273762","PERIOD":"95.592","OBJECT_TYPE":"PAYLOAD","ECCENTRICITY":"0.00016340","SEMIMAJOR_AXIS":"6925.350","NORAD_CAT_ID":"46345","EPOCH":"2022-01-15T03:51:31.352256"},{"REV_AT_EPOCH":"7791","RA_OF_ASC_NODE":"206.2518","LAUNCH_DATE":"2020-09-03","APOAPSIS":"464.390","MEAN_MOTION_DOT":"0.00003988","BSTAR":"0.00012959000000","TLE_LINE1":"1 46346U 20062X   22015.78510534  .00003988  00000-0  12959-3 0  9993","ARG_OF_PERICENTER":"43.5915","MEAN_ELEMENT_THEORY":"SGP4","DECAY_DATE":null,"REF_FRAME":"TEME","CENTER_NAME":"EARTH","PERIOD":"93.855","MEAN_MOTION_DDOT":"0.0000000000000","FILE":"3274074","TIME_SYSTEM":"UTC","ECCENTRICITY":"0.00019550","OBJECT_TYPE":"PAYLOAD","EPOCH":"2022-01-15T18:50:33.101376","NORAD_CAT_ID":"46346","SEMIMAJOR_AXIS":"6841.188","MEAN_MOTION":"15.34282991","CLASSIFICATION_TYPE":"U","OBJECT_ID":"2020-062X","SITE":"AFETR","ELEMENT_SET_NO":"999","INCLINATION":"53.0524","TLE_LINE2":"2 46346  53.0524 206.2518 0001955  43.5915 316.5240 15.34282991 77914","PERIAPSIS":"461.716","OBJECT_NAME":"STARLINK-1546","RCS_SIZE":"LARGE","EPHEMERIS_TYPE":"0","COUNTRY_CODE":"US","GP_ID":"193947212","MEAN_ANOMALY":"316.5240"},{"REV_AT_EPOCH":"7669","TLE_LINE1":"1 46347U 20062Y   22015.45057830  .00000947  00000-0  82471-4 0  9992","BSTAR":"0.00008247100000","APOAPSIS":"548.487","LAUNCH_DATE":"2020-09-03","MEAN_MOTION_DOT":"0.00000947","RA_OF_ASC_NODE":"289.2922","MEAN_ELEMENT_THEORY":"SGP4","ARG_OF_PERICENTER":"64.0477","CENTER_NAME":"EARTH","DECAY_DATE":null,"REF_FRAME":"TEME","FILE":"3273762","MEAN_MOTION_DDOT":"0.0000000000000","PERIOD":"95.591","TIME_SYSTEM":"UTC","NORAD_CAT_ID":"46347","SEMIMAJOR_AXIS":"6925.314","EPOCH":"2022-01-15T10:48:49.965120","OBJECT_TYPE":"PAYLOAD","ECCENTRICITY":"0.00018880","SITE":"AFETR","OBJECT_ID":"2020-062Y","CLASSIFICATION_TYPE":"U","MEAN_MOTION":"15.06411222","ELEMENT_SET_NO":"999","TLE_LINE2":"2 46347  53.0560 289.2922 0001888  64.0477 296.0706 15.06411222 76694","INCLINATION":"53.0560","PERIAPSIS":"545.872","RCS_SIZE":"LARGE","OBJECT_NAME":"STARLINK-1547","COUNTRY_CODE":"US","EPHEMERIS_TYPE":"0","GP_ID":"193916835","MEAN_ANOMALY":"296.0706"},{"MEAN_ELEMENT_THEORY":"SGP4","ARG_OF_PERICENTER":"59.0447","CENTER_NAME":"EARTH","DECAY_DATE":null,"REF_FRAME":"TEME","REV_AT_EPOCH":"7637","APOAPSIS":"548.570","LAUNCH_DATE":"2020-09-03","MEAN_MOTION_DOT":"0.00000307","RA_OF_ASC_NODE":"313.8007","TLE_LINE1":"1 46348U 20062Z   22015.56069854  .00000307  00000-0  39504-4 0  9993","BSTAR":"0.00003950400000","OBJECT_TYPE":"PAYLOAD","ECCENTRICITY":"0.00019890","SEMIMAJOR_AXIS":"6925.328","NORAD_CAT_ID":"46348","EPOCH":"2022-01-15T13:27:24.353856","MEAN_MOTION_DDOT":"0.0000000000000","FILE":"3273762","PERIOD":"95.592","TIME_SYSTEM":"UTC","TLE_LINE2":"2 46348  53.0559 313.8007 0001989  59.0447 301.0737 15.06406829 76377","INCLINATION":"53.0559","PERIAPSIS":"545.815","CLASSIFICATION_TYPE":"U","MEAN_MOTION":"15.06406829","OBJECT_ID":"2020-062Z","SITE":"AFETR","ELEMENT_SET_NO":"999","GP_ID":"193915583","MEAN_ANOMALY":"301.0737","OBJECT_NAME":"STARLINK-1553","RCS_SIZE":"LARGE","COUNTRY_CODE":"US","EPHEMERIS_TYPE":"0"},{"CENTER_NAME":"EARTH","REF_FRAME":"TEME","DECAY_DATE":null,"MEAN_ELEMENT_THEORY":"SGP4","ARG_OF_PERICENTER":"55.7156","LAUNCH_DATE":"2020-09-03","APOAPSIS":"548.708","MEAN_MOTION_DOT":"0.00001609","RA_OF_ASC_NODE":"287.3142","TLE_LINE1":"1 46349U 20062AA  22015.88920359  .00001609  00000-0  12689-3 0  9995","BSTAR":"0.00012689000000","REV_AT_EPOCH":"7677","OBJECT_TYPE":"PAYLOAD","ECCENTRICITY":"0.00021970","NORAD_CAT_ID":"46349","SEMIMAJOR_AXIS":"6925.322","EPOCH":"2022-01-15T21:20:27.190176","TIME_SYSTEM":"UTC","MEAN_MOTION_DDOT":"0.0000000000000","FILE":"3274074","PERIOD":"95.592","PERIAPSIS":"545.666","TLE_LINE2":"2 46349  53.0637 287.3142 0002197  55.7156 304.4040 15.06408667 76772","INCLINATION":"53.0637","ELEMENT_SET_NO":"999","CLASSIFICATION_TYPE":"U","MEAN_MOTION":"15.06408667","OBJECT_ID":"2020-062AA","SITE":"AFETR","MEAN_ANOMALY":"304.4040","GP_ID":"193946461","COUNTRY_CODE":"US","EPHEMERIS_TYPE":"0","OBJECT_NAME":"STARLINK-1575","RCS_SIZE":"LARGE"}];
